OBJECT_NAME,OBJECT_ID,EPOCH,MEAN_MOTION,ECCENTRICITY,INCLINATION,RA_OF_ASC_NODE,ARG_OF_PERICENTER,MEAN_ANOMALY,EPHEMERIS_TYPE,CLASSIFICATION_TYPE,NORAD_CAT_ID,ELEMENT_SET_NO,REV_AT_EPOCH,BSTAR,MEAN_MOTION_DOT,MEAN_MOTION_DDOT
GEOSCAN 3 (RS92S3),2025-155T,2026-07-12T05:05:22.375392,15.36239514,.00086446,97.4542,163.3973,95.1164,265.1066,0,U,64893,999,8469,.31365182E-3,.11012E-3,0
INNOSAT 3 (RS92S0),2025-155U,2026-07-12T06:03:01.601568,15.45662664,.00083147,97.4486,165.3830,97.7321,262.4872,0,U,64894,999,8483,.53507374E-3,.25793E-3,0
KNACKSAT-2,1998-067XZ,2026-07-12T07:35:28.273344,15.62193743,.00081409,51.6259,167.8638,318.4954,41.5420,0,U,67683,999,2420,.37383079E-3,.33186E-3,0
