GEOSCAN 3 (RS92S3)      
1 64893U 25155T   26193.21206453  .00011012  00000+0  31365-3 0  9997
2 64893  97.4542 163.3973 0008644  95.1164 265.1066 15.36239514 84695
INNOSAT 3 (RS92S0)      
1 64894U 25155U   26193.25210187  .00025793  00000+0  53507-3 0  9994
2 64894  97.4486 165.3830 0008314  97.7321 262.4872 15.45662664 84831
KNACKSAT-2              
1 67683U 98067XZ  26193.31629946  .00033186  00000+0  37383-3 0  9998
2 67683  51.6259 167.8638 0008140 318.4954  41.5420 15.62193743 24201
